GLOBALSTAR M045 [-]     
1 25676U 99019A   24054.90309469 -.00000092  00000+0  11246-4 0  9998
2 25676  51.9943 231.2946 0001235  65.8488  82.4679 12.27032187134553
GLOBALSTAR M019 [-]     
1 25677U 99019B   24054.94928639 -.00000184  00000+0 -97616-3 0  9996
2 25677  51.9904 327.8164 0001582  66.7198  14.4547 12.13851356126943
GLOBALSTAR M044 [-]     
1 25678U 99019C   24054.93858050 -.00000080  00000+0  57809-4 0  9990
2 25678  51.9938 219.2483 0006291 187.8085 340.2103 11.90229487114258
GLOBALSTAR M042 [-]     
1 25679U 99019D   24054.94060109 -.00000077  00000+0  14545-3 0  9997
2 25679  52.0038 323.8506 0003595  36.6531  44.5336 12.22056183126668
GLOBALSTAR M025 [-]     
1 25770U 99031A   24054.82288962 -.00000090  00000+0 -70301-3 0  9997
2 25770  51.9794 189.7452 0002086  85.7347  84.5589 11.22549517427878
GLOBALSTAR M049 [-]     
1 25771U 99031B   24054.82757926 -.00000039  00000+0  89892-3 0  9996
2 25771  51.9848 200.4072 0002176 289.0294  71.0266 11.12104014 64090
GLOBALSTAR M047 [-]     
1 25772U 99031C   24054.81370828 -.00000058  00000+0  32662-3 0  9992
2 25772  51.9798 243.2078 0016797 156.2067 203.9518 11.31918892416829
GLOBALSTAR M052 [-]     
1 25773U 99031D   24054.90269219  .00000004  00000+0  23630-2 0  9998
2 25773  51.9893 315.6560 0003205  90.9317 350.6007 11.15048773425049
